NORAD_CAT_ID,OBJECT_NAME,OBJECT_TYPE,EPOCH,MEAN_MOTION,ECCENTRICITY,INCLINATION,RA_OF_ASC_NODE,ARG_OF_PERICENTER,MEAN_ANOMALY,BSTAR,MEAN_MOTION_DOT,MEAN_MOTION_DDOT,TLE_LINE0,TLE_LINE1,TLE_LINE2,SEMIMAJOR_AXIS,PERIOD,APOGEE,PERIGEE,DECAYED
52468.0,STARLINK-3864,PAYLOAD,2023-04-06 14:17:20,15.08852419,0.0001455,53.2151,173.9829,89.7135,270.4024,0.00076615,0.0001193,0.0,0 STARLINK-3864,1 52468U 22049T   23096.59537390  .00011930  00000-0  76615-3 0  9995,2 52468  53.2151 173.9829 0001455  89.7135 270.4024 15.08852419 51009,6917.842,95.437,540.714,538.701,0.0
52468.0,STARLINK-3864,PAYLOAD,2023-04-06 22:14:16,15.08845557,0.0001376,53.2145,172.4972,79.3286,280.7862,0.00036736,5.564e-05,0.0,0 STARLINK-3864,1 52468U 22049T   23096.92657478  .00005564  00000-0  36736-3 0  9998,2 52468  53.2145 172.4972 0001376  79.3286 280.7862 15.08845557 51053,6917.863,95.437,540.68,538.777,0.0
52468.0,STARLINK-3864,PAYLOAD,2023-04-07 04:35:48,15.0884768,0.0001711,53.2148,171.3075,80.0346,280.0839,0.00040965,6.239e-05,0.0,0 STARLINK-3864,1 52468U 22049T   23097.19153529  .00006239  00000-0  40965-3 0  9995,2 52468  53.2148 171.3075 0001711  80.0346 280.0839 15.08847680 51255,6917.857,95.437,540.906,538.538,0.0
52468.0,STARLINK-3864,PAYLOAD,2023-04-07 10:57:21,15.08845724,0.0001482,53.2144,170.1175,79.6043,280.5116,0.00027518,4.095e-05,0.0,0 STARLINK-3864,1 52468U 22049T   23097.45649495  .00004095  00000-0  27518-3 0  9993,2 52468  53.2144 170.1175 0001482  79.6043 280.5116 15.08845724 51139,6917.863,95.437,540.753,538.703,0.0
52468.0,STARLINK-3864,PAYLOAD,2023-04-08 04:26:35,15.08844761,0.0001628,53.2125,166.8467,78.3687,281.7487,0.00020729,3.013e-05,0.0,0 STARLINK-3864,1 52468U 22049T   23098.18513463  .00003013  00000-0  20729-3 0  9995,2 52468  53.2125 166.8467 0001628  78.3687 281.7487 15.08844761 51400,6917.866,95.437,540.857,538.605,0.0
52468.0,STARLINK-3864,PAYLOAD,2023-04-08 10:48:08,15.08843276,0.0001518,53.2128,165.6567,75.6877,284.4284,9.3902e-05,1.207e-05,0.0,0 STARLINK-3864,1 52468U 22049T   23098.45009467  .00001207  00000-0  93902-4 0  9996,2 52468  53.2128 165.6567 0001518  75.6877 284.4284 15.08843276 51281,6917.87,95.437,540.786,538.685,0.0
52468.0,STARLINK-3864,PAYLOAD,2023-04-09 04:17:22,15.0884234,0.0001474,53.2138,162.3862,78.5732,281.5426,0.0001398,1.938e-05,0.0,0 STARLINK-3864,1 52468U 22049T   23099.17873494  .00001938  00000-0  13980-3 0  9993,2 52468  53.2138 162.3862 0001474  78.5732 281.5426 15.08842340 51554,6917.873,95.437,540.758,538.719,0.0
52468.0,STARLINK-3864,PAYLOAD,2023-04-09 10:38:55,15.0884279,0.0001362,53.2138,161.1961,80.7574,279.3572,0.00010186,1.334e-05,0.0,0 STARLINK-3864,1 52468U 22049T   23099.44369383  .00001334  00000-0  10186-3 0  9995,2 52468  53.2138 161.1961 0001362  80.7574 279.3572 15.08842790 51439,6917.872,95.437,540.679,538.795,0.0
52468.0,STARLINK-3864,PAYLOAD,2023-04-09 13:49:41,15.08848598,0.0001361,53.2149,160.6005,96.0134,264.1014,0.00014925,2.089e-05,0.0,0 STARLINK-3864,1 52468U 22049T   23099.57617023  .00002089  00000-0  14925-3 0  9999,2 52468  53.2149 160.6005 0001361  96.0134 264.1014 15.08848598 51452,6917.854,95.437,540.661,538.778,0.0
52468.0,STARLINK-3864,PAYLOAD,2023-04-10 07:18:56,15.08836231,0.000134,53.2145,157.3309,82.0178,278.0967,4.4945e-05,4.27e-06,0.0,0 STARLINK-3864,1 52468U 22049T   23100.30481738  .00000427  00000-0  44945-4 0  9995,2 52468  53.2145 157.3309 0001340  82.0178 278.0967 15.08836231 51720,6917.892,95.438,540.684,538.83,0.0
52468.0,STARLINK-3864,PAYLOAD,2023-04-10 15:15:51,15.08845398,0.0001457,53.2136,155.8429,81.1584,278.9573,0.00013557,1.871e-05,0.0,0 STARLINK-3864,1 52468U 22049T   23100.63601271  .00001871  00000-0  13557-3 0  9995,2 52468  53.2136 155.8429 0001457  81.1584 278.9573 15.08845398 51777,6917.864,95.437,540.737,538.721,0.0
52468.0,STARLINK-3864,PAYLOAD,2023-04-11 05:34:20,15.08836813,0.0001141,53.2141,153.1664,87.8363,272.276,0.00034347,5.182e-05,0.0,0 STARLINK-3864,1 52468U 22049T   23101.23217608  .00005182  00000-0  34347-3 0  9998,2 52468  53.2141 153.1664 0001141  87.8363 272.2760 15.08836813 51860,6917.89,95.438,540.544,538.966,0.0
52468.0,STARLINK-3864,PAYLOAD,2023-04-11 10:20:28,15.08848398,0.000143,53.2147,152.2733,97.8152,262.3002,0.00016872,2.399e-05,0.0,0 STARLINK-3864,1 52468U 22049T   23101.43088958  .00002399  00000-0  16872-3 0  9994,2 52468  53.2147 152.2733 0001430  97.8152 262.3002 15.08848398 51894,6917.855,95.437,540.709,538.73,0.0
52468.0,STARLINK-3864,PAYLOAD,2023-04-11 13:31:14,15.08853712,0.0001418,53.2151,151.6792,93.7214,266.394,0.00025191,3.725e-05,0.0,0 STARLINK-3864,1 52468U 22049T   23101.56336682  .00003725  00000-0  25191-3 0  9996,2 52468  53.2151 151.6792 0001418  93.7214 266.3940 15.08853712 51753,6917.838,95.437,540.684,538.723,0.0
52468.0,STARLINK-3864,PAYLOAD,2023-04-11 19:52:48,15.08833547,0.000139,53.2161,150.4943,115.0855,245.0282,-9.8289e-05,-1.852e-05,0.0,0 STARLINK-3864,1 52468U 22049T   23101.82833518 -.00001852  00000-0 -98289-4 0  9995,2 52468  53.2161 150.4943 0001390 115.0855 245.0282 15.08833547 51798,6917.9,95.438,540.727,538.804,0.0
52468.0,STARLINK-3864,PAYLOAD,2023-04-12 08:35:53,15.08836106,0.00014,53.2156,148.1115,100.6704,259.4446,1.7316e-05,-1.2e-07,0.0,0 STARLINK-3864,1 52468U 22049T   23102.35825609 -.00000012  00000-0  17316-4 0  9994,2 52468  53.2156 148.1115 0001400 100.6704 259.4446 15.08836106 51876,6917.892,95.438,540.726,538.789,0.0
52468.0,STARLINK-3864,PAYLOAD,2023-04-13 10:02:03,15.08837766,0.0001311,53.2147,143.3531,93.2211,266.8931,5.9833e-05,6.64e-06,0.0,0 STARLINK-3864,1 52468U 22049T   23103.41809744  .00000664  00000-0  59833-4 0  9996,2 52468  53.2147 143.3531 0001311  93.2211 266.8931 15.08837766 52039,6917.887,95.438,540.659,538.845,0.0
52468.0,STARLINK-3864,PAYLOAD,2023-04-13 19:34:22,15.08838072,0.0001318,53.2147,141.569,90.0114,270.1029,0.00012119,1.641e-05,0.0,0 STARLINK-3864,1 52468U 22049T   23103.81553927  .00001641  00000-0  12119-3 0  9990,2 52468  53.2147 141.5690 0001318  90.0114 270.1029 15.08838072 52250,6917.886,95.438,540.663,538.84,0.0
52468.0,STARLINK-3864,PAYLOAD,2023-04-14 09:52:50,15.08843519,0.0001371,53.2145,138.892,92.7147,267.4002,0.00026499,3.932e-05,0.0,0 STARLINK-3864,1 52468U 22049T   23104.41169902  .00003932  00000-0  26499-3 0  9994,2 52468  53.2145 138.8920 0001371  92.7147 267.4002 15.08843519 52181,6917.87,95.437,540.683,538.786,0.0
52468.0,STARLINK-3864,PAYLOAD,2023-04-15 06:32:51,15.08840751,0.0001382,53.2136,135.0253,81.7303,278.3846,0.00013699,1.893e-05,0.0,0 STARLINK-3864,1 52468U 22049T   23105.27282140  .00001893  00000-0  13699-3 0  9991,2 52468  53.2136 135.0253 0001382  81.7303 278.3846 15.08840751 52477,6917.878,95.438,540.699,538.787,0.0
52468.0,STARLINK-3864,PAYLOAD,2023-04-15 09:43:37,15.08843453,0.0001413,53.2141,134.4305,81.3368,278.7784,0.00016063,2.27e-05,0.0,0 STARLINK-3864,1 52468U 22049T   23105.40530071  .00002270  00000-0  16063-3 0  9993,2 52468  53.2141 134.4305 0001413  81.3368 278.7784 15.08843453 52338,6917.87,95.437,540.712,538.757,0.0
52468.0,STARLINK-3864,PAYLOAD,2023-04-15 19:15:56,15.08843169,0.0001445,53.2149,132.6476,78.7731,281.3423,0.00014329,1.993e-05,0.0,0 STARLINK-3864,1 52468U 22049T   23105.80274131  .00001993  00000-0  14329-3 0  9993,2 52468  53.2149 132.6476 0001445  78.7731 281.3423 15.08843169 52394,6917.871,95.437,540.735,538.736,0.0
52468.0,STARLINK-3864,PAYLOAD,2023-04-16 07:59:01,15.08856608,0.0001501,53.215,130.2693,75.7424,284.3734,-0.00037337,-6.228e-05,0.0,0 STARLINK-3864,1 52468U 22049T   23106.33265388 -.00006228  00000-0 -37337-3 0  9998,2 52468  53.2150 130.2693 0001501  75.7424 284.3734 15.08856608 52637,6917.83,95.437,540.733,538.656,0.0
52468.0,STARLINK-3864,PAYLOAD,2023-04-16 19:06:43,15.08843803,0.0001606,53.2158,128.188,75.5189,284.5981,9.0956e-05,1.16e-05,0.0,0 STARLINK-3864,1 52468U 22049T   23106.79634091  .00001160  00000-0  90956-4 0  9994,2 52468  53.2158 128.1880 0001606  75.5189 284.5981 15.08843803 52540,6917.869,95.437,540.845,538.623,0.0
52468.0,STARLINK-3864,PAYLOAD,2023-04-17 04:39:03,15.08810814,0.0001369,53.2154,126.4029,88.4736,271.6413,0.00049491,7.591e-05,0.0,0 STARLINK-3864,1 52468U 22049T   23107.19379489  .00007591  00000-0  49491-3 0  9997,2 52468  53.2154 126.4029 0001369  88.4736 271.6413 15.08810814 52766,6917.97,95.439,540.782,538.888,0.0
52468.0,STARLINK-3864,PAYLOAD,2023-04-17 11:00:35,15.08841088,0.0001452,53.215,125.2121,90.0054,270.1104,6.2475e-05,7.06e-06,0.0,0 STARLINK-3864,1 52468U 22049T   23107.45874175  .00000706  00000-0  62475-4 0  9997,2 52468  53.2150 125.2121 0001452  90.0054 270.1104 15.08841088 52800,6917.877,95.437,540.747,538.738,0.0
52468.0,STARLINK-3864,PAYLOAD,2023-04-18 10:51:22,15.08838726,0.0001438,53.2148,120.7502,101.9488,258.1665,3.3635e-05,2.47e-06,0.0,0 STARLINK-3864,1 52468U 22049T   23108.45234395  .00000247  00000-0  33635-4 0  9998,2 52468  53.2148 120.7502 0001438 101.9488 258.1665 15.08838726 52798,6917.884,95.438,540.744,538.754,0.0
52468.0,STARLINK-3864,PAYLOAD,2023-04-18 17:12:55,15.08836567,0.0001453,53.215,119.5604,103.412,256.7034,3.5869e-05,2.83e-06,0.0,0 STARLINK-3864,1 52468U 22049T   23108.71730564  .00000283  00000-0  35869-4 0  9997,2 52468  53.2150 119.5604 0001453 103.4120 256.7034 15.08836567 52994,6917.891,95.438,540.761,538.751,0.0
52468.0,STARLINK-3864,PAYLOAD,2023-04-19 07:31:23,15.08839189,0.000142,53.215,116.884,101.2305,258.8846,6.3107e-05,7.17e-06,0.0,0 STARLINK-3864,1 52468U 22049T   23109.31346433  .00000717  00000-0  63107-4 0  9990,2 52468  53.2150 116.8840 0001420 101.2305 258.8846 15.08839189 52921,6917.883,95.438,540.73,538.766,0.0
52468.0,STARLINK-3864,PAYLOAD,2023-04-19 17:03:42,15.0883698,0.000139,53.2151,115.1001,96.3426,263.7724,5.0631e-05,5.18e-06,0.0,0 STARLINK-3864,1 52468U 22049T   23109.71090692  .00000518  00000-0  50631-4 0  9994,2 52468  53.2151 115.1001 0001390  96.3426 263.7724 15.08836980 52989,6917.89,95.438,540.716,538.793,0.0
